ONEWEB-0456             
1 51646U 22012AA  23280.55296669  .00000665  00000+0  18684-2 0  9997
2 51646  87.8880 231.5862 0002089  69.1518 290.9833 13.10373731 80527
ONEWEB-0457             
1 51647U 22012AB  23280.37749431  .00000090  00000+0  22056-3 0  9999
2 51647  87.8882 231.6243 0001854  90.9173 269.2167 13.10380325 80506
ONEWEB-0458             
1 51648U 22012AC  23280.39862356  .00000778  00000+0  21910-2 0  9994
2 51648  87.8882 231.6327 0002259  80.9702 279.1681 13.10374831 80468
ONEWEB-0461             
1 51649U 22012AD  23280.55041599  .00000078  00000+0  16695-3 0  9999
2 51649  87.9364 201.3356 0001912  79.8354 280.2993 13.17653520 84359
ONEWEB-0463             
1 51650U 22012AE  23280.53355513  .00000017  00000+0  10564-4 0  9996
2 51650  87.9253 201.3751 0001803  78.6493 281.4841 13.17650205 84135
ONEWEB-0464             
1 51651U 22012AF  23280.39539739  .00000823  00000+0  23215-2 0  9995
2 51651  87.8881 231.6219 0002278  67.9614 292.1755 13.10375495 80485
ONEWEB-0468             
1 51652U 22012AG  23280.55461299  .00000651  00000+0  18285-2 0  9999
2 51652  87.8878 231.5835 0002109  79.5752 280.5613 13.10371578 80482
ONEWEB-0473             
1 51653U 22012AH  23280.38726082  .00000592  00000+0  16581-2 0  9996
2 51653  87.8882 231.6207 0002231  78.3228 281.8150 13.10379060 80465
